CUTE-1 (CO-55)          
1 27844U 03031E   24204.45095079  .00000959  00000+0  44205-3 0  9993
2 27844  98.6770 210.9888 0010661  47.8761 312.3322 14.23328328 92808
CUBESAT XI-IV (CO-57)   
1 27848U 03031J   24204.46938721  .00000835  00000+0  39186-3 0  9993
2 27848  98.6801 211.2321 0010751  62.4010 297.8259 14.22760526 92550
CUBESAT XI-V            
1 28895U 05043F   24204.82446906  .00004211  00000+0  74313-3 0  9993
2 28895  98.2066 340.7142 0014560 242.6195 117.3528 14.67942311999913
CUTE-1.7+APD II (CO-65) 
1 32785U 08021C   24204.44303497  .00008444  00000+0  73321-3 0  9990
2 32785  97.7557 169.4895 0010610 198.0386 162.0461 14.97232824880752
AAUSAT-II               
1 32788U 08021F   24204.43338077  .00035312  00000+0  16671-2 0  9992
2 32788  97.5947 184.8206 0007230  71.0974 289.1044 15.19329464883674
SEEDS II (CO-66)        
1 32791U 08021J   24204.38939058  .00014785  00000+0  10531-2 0  9996
2 32791  97.6929 175.3833 0005895 164.3051 195.8359 15.04690865881813
SWISSCUBE               
1 35932U 09051B   24204.61564898  .00002805  00000+0  60436-3 0  9992
2 35932  98.4666  88.6318 0006570 199.2883 160.8068 14.59239585787726
BEESAT-1                
1 35933U 09051C   24204.62720045  .00002441  00000+0  53065-3 0  9998
2 35933  98.4593  89.5062 0004669 210.5160 149.5767 14.58951334787793
ITUPSAT1                
1 35935U 09051E   24204.66731992  .00002226  00000+0  49590-3 0  9996
2 35935  98.4689  89.3128 0006806 221.8832 138.1846 14.57896195787466
TISAT 1                 
1 36799U 10035E   24204.63133605  .00014789  00000+0  10930-2 0  9995
2 36799  98.0870  95.6166 0006569 107.1206 253.0738 15.03307479762387
AEROCUBE 4.5A           
1 38767U 12048K   24204.39424158  .00025879  00000+0  13327-2 0  9992
2 38767  64.6576 200.9142 0110342   5.9746 354.2660 15.11139814265785
AEROCUBE 4.5B           
1 38768U 12048L   24204.16305168  .00055602  00000+0  18146-2 0  9998
2 38768  64.6550 124.2552 0086983 353.2970   6.6987 15.27798836266763
STRAND-1                
1 39090U 13009E   24204.46176596  .00000898  00000+0  32268-3 0  9998
2 39090  98.3814  31.7770 0009600 141.3442 218.8433 14.36136217597302
BRITE-AUSTRIA           
1 39091U 13009F   24204.58399089  .00000631  00000+0  23238-3 0  9998
2 39091  98.3859  31.1690 0010931 148.6265 211.5575 14.35849871597346
NEE-01 PEGASO           
1 39151U 13018B   24204.76715979  .00005686  00000+0  65389-3 0  9993
2 39151  98.0405 322.2402 0013618 284.6066  75.3638 14.86117250607261
ESTCUBE 1               
1 39161U 13021C   24204.64817841  .00004609  00000+0  66560-3 0  9992
2 39161  97.8268 270.0343 0010336 113.4429 246.7869 14.76650897602360
POPACS 1                
1 39268U 13055D   24204.46851966  .00060261  00000+0  10139-2 0  9999
2 39268  80.9806 110.6842 0394112 339.3912  19.1771 14.95935431567270
POPACS 2                
1 39269U 13055E   24204.69395206  .00016689  00000+0  38398-3 0  9998
2 39269  80.9997 200.7740 0545541 214.3369 142.1432 14.58060277561992
POPACS 3                
1 39270U 13055F   24204.54815818  .00013740  00000+0  37410-3 0  9999
2 39270  81.0057 252.8164 0623267   0.3011 359.8424 14.38134056538043
ZACUBE-1 (TSHEPISOSAT)  
1 39417U 13066B   24204.38938294  .00009244  00000+0  94669-3 0  9993
2 39417  97.7357 159.5799 0051490  45.7996 314.7434 14.89712995576827
WNISAT-1                
1 39423U 13066H   24204.15252056  .00001684  00000+0  33009-3 0  9991
2 39423  97.6699  35.6450 0168308 259.4412  98.7789 14.55375392565520
TRITON-1                
1 39427U 13066M   24204.74969786  .00007626  00000+0  10632-2 0  9993
2 39427  97.8402 121.5957 0101116 328.5528  30.9660 14.74493948571640
DELFI-N3XT              
1 39428U 13066N   24204.32556638  .00013849  00000+0  17352-2 0  9996
2 39428  97.8366 121.7425 0098883 335.8499  23.8092 14.78889487571287
GOMX-1                  
1 39430U 13066Q   24204.72024982  .00004605  00000+0  76157-3 0  9994
2 39430  97.7276  76.9511 0140492 139.3829 221.7958 14.64398033568243
CUBEBUG-2 (LO-74)       
1 39440U 13066AA  24204.58659928  .00007004  00000+0  81675-3 0  9990
2 39440  97.8139 147.5029 0070138 157.0648 203.3725 14.83732445573588
NEE-02 KRYSAOR          
1 39441U 13066AB  24204.52249595  .00004360  00000+0  55167-3 0  9999
2 39441  97.8229 143.1773 0073960 179.7641 180.3619 14.80396345574328
FUNCUBE-1 (AO-73)       
1 39444U 13066AE  24204.41326288  .00012658  00000+0  12025-2 0  9999
2 39444  97.7206 162.8193 0048091  26.3286 334.0362 14.92741264575363
UWE-3                   
1 39446U 13066AG  24204.39413442  .00007947  00000+0  87354-3 0  9990
2 39446  97.7821 153.3911 0061828 103.5700 257.2413 14.86482153573939
BRITE-CA1 (TORONTO)     
1 40020U 14033L   24204.76827130  .00002114  00000+0  34620-3 0  9998
2 40020  97.8822 340.6489 0082355 339.4294  20.3603 14.69580760540206
DUCHIFAT-1              
1 40021U 14033M   24204.53244692  .00021638  00000+0  13910-2 0  9990
2 40021  98.0905 190.2082 0011410 350.9992   9.1028 15.08385162549452
NANOSATC-BR1            
1 40024U 14033Q   24204.34227557  .00016686  00000+0  12036-2 0  9998
2 40024  98.0649 177.9265 0007626  63.3475 296.8530 15.04186705548539
QB50P1                  
1 40025U 14033R   24204.83817622  .00012911  00000+0  10292-2 0  9990
2 40025  98.0411 166.7724 0015521  52.7579 307.5057 15.00379263548738
QB50P2                  
1 40032U 14033Y   24204.83777078  .00011828  00000+0  97709-3 0  9993
2 40032  98.0106 158.2463 0011646  45.7508 314.4668 14.99073345548533
PERSEUS-M2              
1 40037U 14033AD  24204.80610644  .00004118  00000+0  42469-3 0  9997
2 40037  97.9264 135.7271 0014671  79.6336 280.6535 14.90693511547635
PERSEUS-M1              
1 40039U 14033AF  24204.36662839  .00004014  00000+0  41632-3 0  9999
2 40039  97.9066 131.2410 0014602  80.3018 279.9849 14.90480819546928
POLYITAN-1              
1 40042U 14033AJ  24204.37290530  .00016888  00000+0  12416-2 0  9998
2 40042  98.0725 170.1213 0013432  25.9246 334.2649 15.03417293548125
TIGRISAT                
1 40043U 14033AK  24204.38597118  .00005510  00000+0  73032-3 0  9994
2 40043  97.6985   5.6044 0055009 187.5889 172.4497 14.79190184542662
AEROCUBE 6A             
1 40045U 14033AM  24204.39722221  .00010353  00000+0  12200-2 0  9992
2 40045  97.6714  16.4981 0050395 164.8814 195.3921 14.84032485543014
AEROCUBE 6B             
1 40046U 14033AN  24204.41214287  .00011530  00000+0  13301-2 0  9995
2 40046  97.6679  15.2486 0049118 160.0634 200.2515 14.84921114543078
UKUBE-1                 
1 40074U 14037F   24204.69539034  .00013797  00000+0  12815-2 0  9996
2 40074  98.3426 136.8169 0002760 345.4730  14.6409 14.94511878544087
BRITE-PL2 (HEWELIUSZ)   
1 40119U 14049B   24204.22878326  .00004873  00000+0  52134-3 0  9992
2 40119  97.8851 303.7453 0014546 246.8189 113.1496 14.89124480537795
AEROCUBE 5C             
1 40965U 15058B   24204.53481245  .00005959  00000+0  54116-3 0  9994
2 40965  64.7689 253.1039 0192261 297.4843  60.6835 14.83115937262287
AEROCUBE 7              
1 40966U 15058C   24204.43647339  .00007109  00000+0  61963-3 0  9999
2 40966  64.7659 246.8409 0187062 297.1665  61.0480 14.85071119262340
FOX-1A (AO-85)          
1 40967U 15058D   24204.60969982  .00006041  00000+0  55874-3 0  9998
2 40967  64.7773 266.8685 0191469 293.2827  64.8228 14.82517757 10240
SINOD-D 1               
1 40968U 15058E   24204.60041026  .00007818  00000+0  69083-3 0  9999
2 40968  64.7768 259.3216 0186045 292.2838  65.8636 14.84598988 13072
SNAP-3 ALICE            
1 40970U 15058G   24204.37736596  .00023358  00000+0  15673-2 0  9991
2 40970  64.7681 215.1584 0155653 290.4080  68.0377 14.97386521 11052
LMRST-SAT               
1 40971U 15058H   24204.58595696  .00005925  00000+0  54718-3 0  9993
2 40971  64.7759 262.4756 0192634 294.6792  63.4364 14.82456321 10246
SNAP-3 EDDIE            
1 40972U 15058J   24204.44608004  .00024920  00000+0  16511-2 0  9991
2 40972  64.7660 208.2848 0156177 291.3179  67.1325 14.97744587 13165
PROPCUBE 3              
1 40973U 15058K   24204.36569781  .00006573  00000+0  58233-3 0  9993
2 40973  64.7698 250.6427 0189061 296.0870  62.0888 14.84309419 11252
BISONSAT                
1 40974U 15058L   24204.37287551  .00014978  00000+0  11237-2 0  9997
2 40974  64.7655 223.7053 0169969 293.8215  64.5159 14.91990861 11012
SNAP-3 JIMI             
1 40975U 15058M   24204.31018436  .00009674  00000+0  79703-3 0  9996
2 40975  64.7674 238.3353 0180968 295.0986  63.1440 14.87590263 10250
PROPCUBE 1 (FLORA)      
1 40976U 15058N   24204.60750063  .00005349  00000+0  51460-3 0  9993
2 40976  64.7762 278.0272 0190676 295.8963  62.2596 14.81306814 13043
SINOD-D 3               
1 40977U 15058P   24204.54891905  .00007233  00000+0  66397-3 0  9997
2 40977  64.7750 271.1741 0185248 295.1130  63.0856 14.83367986 11274
HORYU-4                 
1 41340U 16012D   24204.14472173  .00019162  00000+0  92540-3 0  9994
2 41340  31.0022 107.6067 0010414 324.3155  35.6789 15.17434524463469
RAVAN                   
1 41849U 16067B   24204.45768279  .00015686  00000+0  84239-3 0  9990
2 41849  98.0650  24.2415 0011878 267.5178  92.4692 15.14960766421324
CELTEE 1                
1 41850U 16067C   24204.42761830  .00010046  00000+0  67308-3 0  9998
2 41850  98.1045  15.7525 0001844  85.4804 274.6633 15.07104815420737
OPTICUBE 04             
1 41851U 16067D   24204.50660536  .00004602  00000+0  34552-3 0  9995
2 41851  98.0784  10.9358 0016694 300.2119  59.7451 15.03049561420545
AEROCUBE 8D             
1 41852U 16067E   24204.38749497  .00010269  00000+0  66375-3 0  9990
2 41852  98.1092  15.5561 0004730   3.2313 356.8943 15.08419759420700
AEROCUBE 8C             
1 41853U 16067F   24204.40213123  .00011053  00000+0  71471-3 0  9991
2 41853  98.0912  14.0629 0006535 281.8667  78.1827 15.08375568420693
